{"epoch":1784710044,"count":18256,"objects":[{"id":"27607","name":"SAUDISAT 1C","type":"PAYLOAD","l1":"1 27607U 02058C   26201.93815510  .00000570  00000-0  84993-4 0  9999","l2":"2 27607  64.5521  24.5545 0074346 256.2283 103.0541 14.83105633269469"},{"id":"28371","name":"SAUDISAT 2","type":"PAYLOAD","l1":"1 28371U 04025F   26202.23605693  .00000158  00000-0  46405-4 0  9995","l2":"2 28371  98.5524 203.1005 0024449 189.3225 170.7521 14.56700415170701"},{"id":"31118","name":"SAUDISAT 3","type":"PAYLOAD","l1":"1 31118U 07012B   26202.59959619  .00000183  00000-0  37691-4 0  9991","l2":"2 31118  98.1470 153.0264 0015875 115.7784 244.5062 14.71442761 32808"},{"id":"41784","name":"PISAT","type":"PAYLOAD","l1":"1 41784U 16059B   26202.40550291  .00000674  00000-0  12200-3 0  9998","l2":"2 41784  97.8195 201.3909 0030576  95.9187 264.5506 14.69037116524769"},{"id":"42831","name":"FLYING LAPTOP","type":"PAYLOAD","l1":"1 42831U 17042G   26202.64506685  .00002120  00000-0  16849-3 0  9990","l2":"2 42831  97.4843 356.8887 0019295  12.0270 348.1412 15.01338550491624"},{"id":"46495","name":"SALSAT","type":"PAYLOAD","l1":"1 46495U 20068K   26202.28424147  .00005612  00000-0  19458-3 0  9992","l2":"2 46495  97.8867 207.4380 0009855 171.6754 188.4651 15.30225780320570"}]}